CCSDS_OMM_VERS = 2.0
CREATION_DATE  = 
ORIGINATOR     = 

OBJECT_NAME    = SL-16 R/B
OBJECT_ID      = 1996-051B
CENTER_NAME    = EARTH
REF_FRAME      = TEME
TIME_SYSTEM    = UTC
MEAN_ELEMENT_THEORY = SGP/SGP4

EPOCH          = 2025-11-06T17:21:40.877856
MEAN_MOTION    = 14.12392332
ECCENTRICITY   = .0017744
INCLINATION    = 70.7594
RA_OF_ASC_NODE = 75.5143
ARG_OF_PERICENTER = 307.1054
MEAN_ANOMALY   = 52.8443

EPHEMERIS_TYPE = 0
CLASSIFICATION_TYPE = U
NORAD_CAT_ID   = 24298
ELEMENT_SET_NO = 999
REV_AT_EPOCH   = 50428
BSTAR          = -.32038E-5
MEAN_MOTION_DOT = -.55E-6
MEAN_MOTION_DDOT = 0

CCSDS_OMM_VERS = 2.0
CREATION_DATE  = 
ORIGINATOR     = 

OBJECT_NAME    = ORBVIEW 2 (SEASTAR)
OBJECT_ID      = 1997-037A
CENTER_NAME    = EARTH
REF_FRAME      = TEME
TIME_SYSTEM    = UTC
MEAN_ELEMENT_THEORY = SGP/SGP4

EPOCH          = 2025-11-06T11:00:26.349120
MEAN_MOTION    = 14.35373901
ECCENTRICITY   = .0003141
INCLINATION    = 98.8445
RA_OF_ASC_NODE = 106.6247
ARG_OF_PERICENTER = 72.5746
MEAN_ANOMALY   = 287.5782

EPHEMERIS_TYPE = 0
CLASSIFICATION_TYPE = U
NORAD_CAT_ID   = 24883
ELEMENT_SET_NO = 999
REV_AT_EPOCH   = 49079
BSTAR          = .17382E-3
MEAN_MOTION_DOT = .452E-5
MEAN_MOTION_DDOT = 0

CCSDS_OMM_VERS = 2.0
CREATION_DATE  = 
ORIGINATOR     = 

OBJECT_NAME    = SL-16 R/B
OBJECT_ID      = 1998-043G
CENTER_NAME    = EARTH
REF_FRAME      = TEME
TIME_SYSTEM    = UTC
MEAN_ELEMENT_THEORY = SGP/SGP4

EPOCH          = 2025-11-06T14:14:21.272928
MEAN_MOTION    = 14.26011435
ECCENTRICITY   = .0010189
INCLINATION    = 98.8062
RA_OF_ASC_NODE = 258.2204
ARG_OF_PERICENTER = 17.6356
MEAN_ANOMALY   = 342.5175

EPHEMERIS_TYPE = 0
CLASSIFICATION_TYPE = U
NORAD_CAT_ID   = 25400
ELEMENT_SET_NO = 999
REV_AT_EPOCH   = 42144
BSTAR          = .73053E-4
MEAN_MOTION_DOT = .129E-5
MEAN_MOTION_DDOT = 0

CCSDS_OMM_VERS = 2.0
CREATION_DATE  = 
ORIGINATOR     = 

OBJECT_NAME    = SL-16 R/B
OBJECT_ID      = 1998-045B
CENTER_NAME    = EARTH
REF_FRAME      = TEME
TIME_SYSTEM    = UTC
MEAN_ELEMENT_THEORY = SGP/SGP4

EPOCH          = 2025-11-06T17:47:31.641216
MEAN_MOTION    = 14.16168474
ECCENTRICITY   = .000888
INCLINATION    = 71.0110
RA_OF_ASC_NODE = 80.1266
ARG_OF_PERICENTER = 225.9082
MEAN_ANOMALY   = 134.1311

EPHEMERIS_TYPE = 0
CLASSIFICATION_TYPE = U
NORAD_CAT_ID   = 25407
ELEMENT_SET_NO = 999
REV_AT_EPOCH   = 40969
BSTAR          = .74502E-4
MEAN_MOTION_DOT = .1E-5
MEAN_MOTION_DDOT = 0

CCSDS_OMM_VERS = 2.0
CREATION_DATE  = 
ORIGINATOR     = 

OBJECT_NAME    = ISS (ZARYA)
OBJECT_ID      = 1998-067A
CENTER_NAME    = EARTH
REF_FRAME      = TEME
TIME_SYSTEM    = UTC
MEAN_ELEMENT_THEORY = SGP/SGP4

EPOCH          = 2025-11-06T10:06:42.943104
MEAN_MOTION    = 15.49793555
ECCENTRICITY   = .0005132
INCLINATION    = 51.6334
RA_OF_ASC_NODE = 322.2688
ARG_OF_PERICENTER = 23.2406
MEAN_ANOMALY   = 336.8814

EPHEMERIS_TYPE = 0
CLASSIFICATION_TYPE = U
NORAD_CAT_ID   = 25544
ELEMENT_SET_NO = 999
REV_AT_EPOCH   = 53722
BSTAR          = .22509E-3
MEAN_MOTION_DOT = .12321E-3
MEAN_MOTION_DDOT = 0

CCSDS_OMM_VERS = 2.0
CREATION_DATE  = 
ORIGINATOR     = 

OBJECT_NAME    = CZ-4B R/B
OBJECT_ID      = 1999-025C
CENTER_NAME    = EARTH
REF_FRAME      = TEME
TIME_SYSTEM    = UTC
MEAN_ELEMENT_THEORY = SGP/SGP4

EPOCH          = 2025-11-06T13:49:00.702048
MEAN_MOTION    = 14.18229676
ECCENTRICITY   = .0036682
INCLINATION    = 98.6824
RA_OF_ASC_NODE = 352.6546
ARG_OF_PERICENTER = 340.6456
MEAN_ANOMALY   = 175.2039

EPHEMERIS_TYPE = 0
CLASSIFICATION_TYPE = U
NORAD_CAT_ID   = 25732
ELEMENT_SET_NO = 999
REV_AT_EPOCH   = 37071
BSTAR          = .75312E-4
MEAN_MOTION_DOT = .112E-5
MEAN_MOTION_DDOT = 0

CCSDS_OMM_VERS = 2.0
CREATION_DATE  = 
ORIGINATOR     = 

OBJECT_NAME    = OKEAN-O
OBJECT_ID      = 1999-039A
CENTER_NAME    = EARTH
REF_FRAME      = TEME
TIME_SYSTEM    = UTC
MEAN_ELEMENT_THEORY = SGP/SGP4

EPOCH          = 2025-11-06T14:55:20.724960
MEAN_MOTION    = 14.80067881
ECCENTRICITY   = .0001638
INCLINATION    = 97.9655
RA_OF_ASC_NODE = 6.6278
ARG_OF_PERICENTER = 71.8740
MEAN_ANOMALY   = 288.2650

EPHEMERIS_TYPE = 0
CLASSIFICATION_TYPE = U
NORAD_CAT_ID   = 25860
ELEMENT_SET_NO = 999
REV_AT_EPOCH   = 41618
BSTAR          = .1639E-3
MEAN_MOTION_DOT = .1189E-4
MEAN_MOTION_DDOT = 0

CCSDS_OMM_VERS = 2.0
CREATION_DATE  = 
ORIGINATOR     = 

OBJECT_NAME    = SL-16 R/B
OBJECT_ID      = 1999-039B
CENTER_NAME    = EARTH
REF_FRAME      = TEME
TIME_SYSTEM    = UTC
MEAN_ELEMENT_THEORY = SGP/SGP4

EPOCH          = 2025-11-06T14:01:13.846656
MEAN_MOTION    = 14.81506325
ECCENTRICITY   = .0013632
INCLINATION    = 98.0179
RA_OF_ASC_NODE = 4.7241
ARG_OF_PERICENTER = 299.5906
MEAN_ANOMALY   = 60.3948

EPHEMERIS_TYPE = 0
CLASSIFICATION_TYPE = U
NORAD_CAT_ID   = 25861
ELEMENT_SET_NO = 999
REV_AT_EPOCH   = 41863
BSTAR          = .12708E-3
MEAN_MOTION_DOT = .943E-5
MEAN_MOTION_DDOT = 0

CCSDS_OMM_VERS = 2.0
CREATION_DATE  = 
ORIGINATOR     = 

OBJECT_NAME    = DELTA 2 R/B
OBJECT_ID      = 1999-041E
CENTER_NAME    = EARTH
REF_FRAME      = TEME
TIME_SYSTEM    = UTC
MEAN_ELEMENT_THEORY = SGP/SGP4

EPOCH          = 2025-11-06T17:43:53.369760
MEAN_MOTION    = 14.11271121
ECCENTRICITY   = .0504767
INCLINATION    = 51.7629
RA_OF_ASC_NODE = 72.1373
ARG_OF_PERICENTER = 345.6796
MEAN_ANOMALY   = 13.0262

EPHEMERIS_TYPE = 0
CLASSIFICATION_TYPE = U
NORAD_CAT_ID   = 25876
ELEMENT_SET_NO = 999
REV_AT_EPOCH   = 34566
BSTAR          = .25134E-3
MEAN_MOTION_DOT = .1319E-4
MEAN_MOTION_DDOT = 0

CCSDS_OMM_VERS = 2.0
CREATION_DATE  = 
ORIGINATOR     = 

OBJECT_NAME    = HELIOS 1B
OBJECT_ID      = 1999-064A
CENTER_NAME    = EARTH
REF_FRAME      = TEME
TIME_SYSTEM    = UTC
MEAN_ELEMENT_THEORY = SGP/SGP4

EPOCH          = 2025-11-06T16:08:41.094240
MEAN_MOTION    = 14.87053443
ECCENTRICITY   = .0002544
INCLINATION    = 98.1757
RA_OF_ASC_NODE = 204.2738
ARG_OF_PERICENTER = 91.8541
MEAN_ANOMALY   = 268.2965

EPHEMERIS_TYPE = 0
CLASSIFICATION_TYPE = U
NORAD_CAT_ID   = 25977
ELEMENT_SET_NO = 999
REV_AT_EPOCH   = 66697
BSTAR          = .34909E-3
MEAN_MOTION_DOT = .3072E-4
MEAN_MOTION_DDOT = 0

CCSDS_OMM_VERS = 2.0
CREATION_DATE  = 
ORIGINATOR     = 

OBJECT_NAME    = SL-16 R/B
OBJECT_ID      = 2000-006B
CENTER_NAME    = EARTH
REF_FRAME      = TEME
TIME_SYSTEM    = UTC
MEAN_ELEMENT_THEORY = SGP/SGP4

EPOCH          = 2025-11-06T14:00:23.440896
MEAN_MOTION    = 14.15801339
ECCENTRICITY   = .0016466
INCLINATION    = 71.0042
RA_OF_ASC_NODE = 356.6819
ARG_OF_PERICENTER = 0.6071
MEAN_ANOMALY   = 359.5069

EPHEMERIS_TYPE = 0
CLASSIFICATION_TYPE = U
NORAD_CAT_ID   = 26070
ELEMENT_SET_NO = 999
REV_AT_EPOCH   = 33113
BSTAR          = .1095E-3
MEAN_MOTION_DOT = .168E-5
MEAN_MOTION_DDOT = 0

