SL-16 R/B               
1 24298U 96051B   25310.72338979 -.00000055  00000+0 -32038-5 0  9997
2 24298  70.7594  75.5143 0017744 307.1054  52.8443 14.12392332504282
ORBVIEW 2 (SEASTAR)     
1 24883U 97037A   25310.45863830  .00000452  00000+0  17382-3 0  9993
2 24883  98.8445 106.6247 0003141  72.5746 287.5782 14.35373901490795
SL-16 R/B               
1 25400U 98043G   25310.59330177  .00000129  00000+0  73053-4 0  9994
2 25400  98.8062 258.2204 0010189  17.6356 342.5175 14.26011435421445
SL-16 R/B               
1 25407U 98045B   25310.74133844  .00000100  00000+0  74502-4 0  9991
2 25407  71.0110  80.1266 0008880 225.9082 134.1311 14.16168474409699
ISS (ZARYA)             
1 25544U 98067A   25310.42133036  .00012321  00000+0  22509-3 0  9992
2 25544  51.6334 322.2688 0005132  23.2406 336.8814 15.49793555537228
CZ-4B R/B               
1 25732U 99025C   25310.57570257  .00000112  00000+0  75312-4 0  9998
2 25732  98.6824 352.6546 0036682 340.6456 175.2039 14.18229676370713
OKEAN-O                 
1 25860U 99039A   25310.62176765  .00001189  00000+0  16390-3 0  9992
2 25860  97.9655   6.6278 0001638  71.8740 288.2650 14.80067881416182
SL-16 R/B               
1 25861U 99039B   25310.58418804  .00000943  00000+0  12708-3 0  9997
2 25861  98.0179   4.7241 0013632 299.5906  60.3948 14.81506325418638
DELTA 2 R/B             
1 25876U 99041E   25310.73881215  .00001319  00000+0  25134-3 0  9998
2 25876  51.7629  72.1373 0504767 345.6796  13.0262 14.11271121345661
HELIOS 1B               
1 25977U 99064A   25310.67269785  .00003072  00000+0  34909-3 0  9998
2 25977  98.1757 204.2738 0002544  91.8541 268.2965 14.87053443666979
SL-16 R/B               
1 26070U 00006B   25310.58360464  .00000168  00000+0  10950-3 0  9990
2 26070  71.0042 356.6819 0016466   0.6071 359.5069 14.15801339331139
